KUIPER-00079            
1 64826U 25151L   25232.37631217  .00021312  00000+0  77293-3 0  9993
2 64826  51.8775 118.6447 0005538 282.1359  77.9004 15.28276678  6581
KUIPER-00080            
1 64827U 25151M   25231.84951014  .00001076  00000+0  48520-4 0  9992
2 64827  51.8784 121.1626 0004435 220.4409 139.6246 15.30195018  5300
KUIPER-00082            
1 64828U 25151N   25232.40509625  .00029579  00000+0  83213-3 0  9998
2 64828  51.8785 118.1211 0004718 265.4800  94.5647 15.36232892  5397
KUIPER-00083            
1 64829U 25151P   25232.41381887  .00056593  00000+0  15942-2 0  9997
2 64829  51.8786 118.1750 0005337 270.6995  89.3380 15.35884547  6585
KUIPER-00084            
1 64830U 25151Q   25231.91945469  .00017391  00000+0  88566-3 0  9991
2 64830  51.8893 122.2707 0007058 257.2427 102.7763 15.16856718  5297
KUIPER-00085            
1 64831U 25151R   25231.94683536  .00030832  00000+0  86256-3 0  9998
2 64831  51.8796 120.3031 0006250 250.9884 109.0425 15.36377258  5327
KUIPER-00086            
1 64832U 25151S   25232.00004630 -.00667735  00000+0 -21145-1 0  9993
2 64832  51.8791 120.2497 0006085 277.6535 273.6142 15.34532008  4904
KUIPER-00087            
1 64833U 25151T   25232.40759856  .00030614  00000+0  86488-3 0  9996
2 64833  51.8799 118.1403 0005106 259.8916 100.1495 15.36081671  5390
